{"type": "FeatureCollection", "features": [ {"type": "Feature", "properties": {"norad_id": 38485, "name": "COSMOS 2251 DEB", "group": "cosmos-2251-debris", "lat": 59.92975778571973, "lon": -178.91463559630162, "alt_km": 32.22629771276206, "timestamp": "2025-12-03T04:52:30.036972+00:00", "meta": {"OBJECT_NAME": "COSMOS 2251 DEB", "OBJECT_ID": "1993-036BTV", "EPOCH": "2025-11-14T09:18:27.993600", "MEAN_MOTION": 15.68613644, "ECCENTRICITY": 0.00102471, "INCLINATION": 73.981, "RA_OF_ASC_NODE": 194.9886, "ARG_OF_PERICENTER": 147.6012, "MEAN_ANOMALY": 212.5842, "EPHEMERIS_TYPE": 0, "CLASSIFICATION_TYPE": "U", "NORAD_CAT_ID": 38485, "ELEMENT_SET_NO": 999, "REV_AT_EPOCH": 17189, "BSTAR": 0.008021323, "MEAN_MOTION_DOT": 0.01011848, "MEAN_MOTION_DDOT": 0}, "tle": {"line1": "1 38485U 93036BTV 25318.38782400  .01011848  00000+0  80213-2 0  9998", "line2": "2 38485  73.9810 194.9886 0010247 147.6012 212.5842 15.68613644171892"}}, "geometry": {"type": "Point", "coordinates": [-178.91463559630162, 59.92975778571973]}}, {"type": "Feature", "properties": {"norad_id": 38486, "name": "COSMOS 2251 DEB", "group": "cosmos-2251-debris", "lat": 57.22467950606799, "lon": -109.88198063272266, "alt_km": 633.6084902276516, "timestamp": "2025-12-03T04:52:30.036982+00:00", "meta": {"OBJECT_NAME": "COSMOS 2251 DEB", "OBJECT_ID": "1993-036BTW", "EPOCH": "2025-12-01T23:18:40.096224", "MEAN_MOTION": 14.72693828, "ECCENTRICITY": 0.00300221, "INCLINATION": 73.9411, "RA_OF_ASC_NODE": 225.9531, "ARG_OF_PERICENTER": 11.225, "MEAN_ANOMALY": 1.4037, "EPHEMERIS_TYPE": 0, "CLASSIFICATION_TYPE": "U", "NORAD_CAT_ID": 38486, "ELEMENT_SET_NO": 999, "REV_AT_EPOCH": 75276, "BSTAR": 0.0031614805, "MEAN_MOTION_DOT": 0.00020338, "MEAN_MOTION_DDOT": 0}, "tle": {"line1": "1 38486U 93036BTW 25335.97129741  .00020338  00000+0  31615-2 0  9991", "line2": "2 38486  73.9411 225.9531 0030022  11.2250   1.4037 14.72693828752763"}}, "geometry": {"type": "Point", "coordinates": [-109.88198063272266, 57.22467950606799]}}, {"type": "Feature", "properties": {"norad_id": 38487, "name": "COSMOS 2251 DEB", "group": "cosmos-2251-debris", "lat": 39.75568835083483, "lon": -140.0398568574964, "alt_km": 513.3241484634491, "timestamp": "2025-12-03T04:52:30.036993+00:00", "meta": {"OBJECT_NAME": "COSMOS 2251 DEB", "OBJECT_ID": "1993-036BTX", "EPOCH": "2025-11-25T23:36:21.750048", "MEAN_MOTION": 15.15423903, "ECCENTRICITY": 0.00258162, "INCLINATION": 73.973, "RA_OF_ASC_NODE": 68.8809, "ARG_OF_PERICENTER": 242.4784, "MEAN_ANOMALY": 117.3787, "EPHEMERIS_TYPE": 0, "CLASSIFICATION_TYPE": "U", "NORAD_CAT_ID": 38487, "ELEMENT_SET_NO": 999, "REV_AT_EPOCH": 66546, "BSTAR": 0.0025488114, "MEAN_MOTION_DOT": 0.00048866, "MEAN_MOTION_DDOT": 0}, "tle": {"line1": "1 38487U 93036BTX 25329.98358507  .00048866  00000+0  25488-2 0  9997", "line2": "2 38487  73.9730  68.8809 0025816 242.4784 117.3787 15.15423903665467"}}, "geometry": {"type": "Point", "coordinates": [-140.0398568574964, 39.75568835083483]}}, {"type": "Feature", "properties": {"norad_id": 39109, "name": "COSMOS 2251 DEB", "group": "cosmos-2251-debris", "lat": -26.67751256983585, "lon": 71.85368219455569, "alt_km": 695.5743964813864, "timestamp": "2025-12-03T04:52:30.037003+00:00", "meta": {"OBJECT_NAME": "COSMOS 2251 DEB", "OBJECT_ID": "1993-036BTY", "EPOCH": "2025-11-13T05:50:34.179360", "MEAN_MOTION": 14.70365272, "ECCENTRICITY": 0.0058425, "INCLINATION": 74.0424, "RA_OF_ASC_NODE": 282.2926, "ARG_OF_PERICENTER": 32.7567, "MEAN_ANOMALY": 29.6254, "EPHEMERIS_TYPE": 0, "CLASSIFICATION_TYPE": "U", "NORAD_CAT_ID": 39109, "ELEMENT_SET_NO": 999, "REV_AT_EPOCH": 64740, "BSTAR": 0.0018778, "MEAN_MOTION_DOT": 0.00011647, "MEAN_MOTION_DDOT": 0}, "tle": {"line1": "1 39109U 93036BTY 25317.24345115  .00011647  00000+0  18778-2 0  9997", "line2": "2 39109  74.0424 282.2926 0058425  32.7567  29.6254 14.70365272647406"}}, "geometry": {"type": "Point", "coordinates": [71.85368219455569, -26.67751256983585]}}, {"type": "Feature", "properties": {"norad_id": 39110, "name": "COSMOS 2251 DEB", "group": "cosmos-2251-debris", "lat": -30.886522575765344, "lon": 70.24914255670855, "alt_km": 593.4895006420202, "timestamp": "2025-12-03T04:52:30.037014+00:00", "meta": {"OBJECT_NAME": "COSMOS 2251 DEB", "OBJECT_ID": "1993-036BTZ", "EPOCH": "2025-11-26T14:53:47.177952", "MEAN_MOTION": 14.72173174, "ECCENTRICITY": 0.00967356, "INCLINATION": 73.9585, "RA_OF_ASC_NODE": 93.0232, "ARG_OF_PERICENTER": 328.841, "MEAN_ANOMALY": 46.9197, "EPHEMERIS_TYPE": 0, "CLASSIFICATION_TYPE": "U", "NORAD_CAT_ID": 39110, "ELEMENT_SET_NO": 999, "REV_AT_EPOCH": 62247, "BSTAR": 0.00042648822, "MEAN_MOTION_DOT": 2.857e-05, "MEAN_MOTION_DDOT": 0}, "tle": {"line1": "1 39110U 93036BTZ 25330.62068493  .00002857  00000+0  42649-3 0  9995", "line2": "2 39110  73.9585  93.0232 0096735 328.8410  46.9197 14.72173174622472"}}, "geometry": {"type": "Point", "coordinates": [70.24914255670855, -30.886522575765344]}}, {"type": "Feature", "properties": {"norad_id": 39111, "name": "COSMOS 2251 DEB", "group": "cosmos-2251-debris", "lat": -51.407108927402426, "lon": 39.89294424306809, "alt_km": 537.6366537496797, "timestamp": "2025-12-03T04:52:30.037024+00:00", "meta": {"OBJECT_NAME": "COSMOS 2251 DEB", "OBJECT_ID": "1993-036BUA", "EPOCH": "2025-11-17T15:40:41.824704", "MEAN_MOTION": 15.09497671, "ECCENTRICITY": 0.00084083, "INCLINATION": 74.0067, "RA_OF_ASC_NODE": 93.139, "ARG_OF_PERICENTER": 94.0367, "MEAN_ANOMALY": 266.1786, "EPHEMERIS_TYPE": 0, "CLASSIFICATION_TYPE": "U", "NORAD_CAT_ID": 39111, "ELEMENT_SET_NO": 999, "REV_AT_EPOCH": 8766, "BSTAR": 0.0056310804, "MEAN_MOTION_DOT": 0.00091468, "MEAN_MOTION_DDOT": 0}, "tle": {"line1": "1 39111U 93036BUA 25321.65326186  .00091468  00000+0  56311-2 0  9991", "line2": "2 39111  74.0067  93.1390 0008408  94.0367 266.1786 15.09497671 87667"}}, "geometry": {"type": "Point", "coordinates": [39.89294424306809, -51.407108927402426]}}, {"type": "Feature", "properties": {"norad_id": 39546, "name": "COSMOS 2251 DEB", "group": "cosmos-2251-debris", "lat": 56.939166875202254, "lon": -177.86099998373714, "alt_km": 594.0542179518225, "timestamp": "2025-12-03T04:52:30.037034+00:00", "meta": {"OBJECT_NAME": "COSMOS 2251 DEB", "OBJECT_ID": "1993-036BUC", "EPOCH": "2025-12-01T05:55:26.467104", "MEAN_MOTION": 14.91578832, "ECCENTRICITY": 0.0043624, "INCLINATION": 73.9966, "RA_OF_ASC_NODE": 159.9082, "ARG_OF_PERICENTER": 321.5487, "MEAN_ANOMALY": 38.2588, "EPHEMERIS_TYPE": 0, "CLASSIFICATION_TYPE": "U", "NORAD_CAT_ID": 39546, "ELEMENT_SET_NO": 999, "REV_AT_EPOCH": 64265, "BSTAR": 0.0014755, "MEAN_MOTION_DOT": 0.00015069, "MEAN_MOTION_DDOT": 0}, "tle": {"line1": "1 39546U 93036BUC 25335.24683411  .00015069  00000+0  14755-2 0  9999", "line2": "2 39546  73.9966 159.9082 0043624 321.5487  38.2588 14.91578832642657"}}, "geometry": {"type": "Point", "coordinates": [-177.86099998373714, 56.939166875202254]}}, {"type": "Feature", "properties": {"norad_id": 39547, "name": "COSMOS 2251 DEB", "group": "cosmos-2251-debris", "lat": 32.944374087071665, "lon": 48.60637165561091, "alt_km": 554.9092696053867, "timestamp": "2025-12-03T04:52:30.037044+00:00", "meta": {"OBJECT_NAME": "COSMOS 2251 DEB", "OBJECT_ID": "1993-036BUD", "EPOCH": "2025-11-30T11:15:54.738720", "MEAN_MOTION": 15.02045479, "ECCENTRICITY": 0.00039238, "INCLINATION": 74.0029, "RA_OF_ASC_NODE": 43.4753, "ARG_OF_PERICENTER": 44.4472, "MEAN_ANOMALY": 333.0483, "EPHEMERIS_TYPE": 0, "CLASSIFICATION_TYPE": "U", "NORAD_CAT_ID": 39547, "ELEMENT_SET_NO": 999, "REV_AT_EPOCH": 63841, "BSTAR": 0.00286575, "MEAN_MOTION_DOT": 0.00037782, "MEAN_MOTION_DDOT": 0}, "tle": {"line1": "1 39547U 93036BUD 25334.46938355  .00037782  00000+0  28657-2 0  9995", "line2": "2 39547  74.0029  43.4753 0003923  44.4472 333.0483 15.02045479638413"}}, "geometry": {"type": "Point", "coordinates": [48.60637165561091, 32.944374087071665]}}, {"type": "Feature", "properties": {"norad_id": 39553, "name": "COSMOS 2251 DEB", "group": "cosmos-2251-debris", "lat": 44.459828464586586, "lon": 150.21167052780936, "alt_km": 745.082527239827, "timestamp": "2025-12-03T04:52:30.037054+00:00", "meta": {"OBJECT_NAME": "COSMOS 2251 DEB", "OBJECT_ID": "1993-036BUK", "EPOCH": "2025-12-01T17:56:57.014304", "MEAN_MOTION": 13.99866529, "ECCENTRICITY": 0.02013394, "INCLINATION": 74.0297, "RA_OF_ASC_NODE": 349.0518, "ARG_OF_PERICENTER": 127.8246, "MEAN_ANOMALY": 234.1304, "EPHEMERIS_TYPE": 0, "CLASSIFICATION_TYPE": "U", "NORAD_CAT_ID": 39553, "ELEMENT_SET_NO": 999, "REV_AT_EPOCH": 75463, "BSTAR": 0.00053939206, "MEAN_MOTION_DOT": 9.2e-06, "MEAN_MOTION_DDOT": 0}, "tle": {"line1": "1 39553U 93036BUK 25335.74788211  .00000920  00000+0  53939-3 0  9994", "line2": "2 39553  74.0297 349.0518 0201339 127.8246 234.1304 13.99866529754634"}}, "geometry": {"type": "Point", "coordinates": [150.21167052780936, 44.459828464586586]}}, {"type": "Feature", "properties": {"norad_id": 39554, "name": "COSMOS 2251 DEB", "group": "cosmos-2251-debris", "lat": -9.179675186093872, "lon": -78.34466440700614, "alt_km": 542.6767795661035, "timestamp": "2025-12-03T04:52:30.037065+00:00", "meta": {"OBJECT_NAME": "COSMOS 2251 DEB", "OBJECT_ID": "1993-036BUL", "EPOCH": "2025-11-30T15:36:56.637792", "MEAN_MOTION": 15.08660873, "ECCENTRICITY": 0.0002133, "INCLINATION": 74.0183, "RA_OF_ASC_NODE": 289.5718, "ARG_OF_PERICENTER": 61.0833, "MEAN_ANOMALY": 111.3721, "EPHEMERIS_TYPE": 0, "CLASSIFICATION_TYPE": "U", "NORAD_CAT_ID": 39554, "ELEMENT_SET_NO": 999, "REV_AT_EPOCH": 64202, "BSTAR": 0.0031443, "MEAN_MOTION_DOT": 0.00049575, "MEAN_MOTION_DDOT": 0}, "tle": {"line1": "1 39554U 93036BUL 25334.65065553  .00049575  00000+0  31443-2 0  9995", "line2": "2 39554  74.0183 289.5718 0002133  61.0833 111.3721 15.08660873642025"}}, "geometry": {"type": "Point", "coordinates": [-78.34466440700614, -9.179675186093872]}}]}